FLOCK 4G-26             
1 62633U 25009AA  26068.80489479  .00011283  00000+0  42469-3 0  9999
2 62633  97.4054 151.3913 0001988 299.1273  60.9767 15.27281631 63733
STARLINK-34615          
1 66321U 25253C   26068.41897537  .00028856  00000+0  10534-2 0  9994
2 66321  42.9927 213.9600 0001516 149.7735 210.3204 15.27600643 20203
